STARLINK-36040          
1 66614U 25270AC  25348.27157692  .00121178  00000+0  20383-2 0  9997
2 66614  42.9991 183.6503 0001719 267.9518  92.1145 15.50595656  4420
STARLINK-35988          
1 66615U 25270AD  25348.25003472 -.02092274  00000+0 -46573-1 0  9998
2 66615  43.0003 183.7980 0001274 265.2975 325.3789 15.46385081  4486
STARLINK-35391          
1 66616U 25270AE  25348.27123001  .00097755  00000+0  16499-2 0  9992
2 66616  42.9987 183.6472 0001858 262.8877  97.1772 15.50604538  4698
STARLINK-35940          
1 66617U 25271A   25348.25003472 -.02114669  00000+0 -45674-1 0  9995
2 66617  53.1600 180.0145 0001304  92.7913 142.7830 15.47506506  4481
STARLINK-35970          
1 66618U 25271B   25348.25003472 -.00177360  00000+0 -32422-2 0  9999
2 66618  53.1599 179.8989 0000717  69.6392 220.5778 15.49409772  4487
STARLINK-35951          
1 66619U 25271C   25348.25003472 -.00148542  00000+0 -27056-2 0  9997
2 66619  53.1602 179.9946 0000481 116.7130 127.8459 15.49394850  4484
STARLINK-35936          
1 66620U 25271D   25348.25003472 -.00089689  00000+0 -16207-2 0  9991
2 66620  53.1601 180.0078 0000873  62.2394 176.5969 15.49350500  4487
STARLINK-35847          
1 66621U 25271E   25348.25003472 -.00153390  00000+0 -27954-2 0  9994
2 66621  53.1601 179.8910 0000747  67.9830 225.7588 15.49400218  4482
STARLINK-35950          
1 66622U 25271F   25348.25003472 -.00096460  00000+0 -17451-2 0  9990
2 66622  53.1601 179.9916 0000764  85.0465 161.4622 15.49352848  4484
STARLINK-35920          
1 66623U 25271G   25348.25003472 -.00069602  00000+0 -12524-2 0  9995
2 66623  53.1602 179.9828 0001189  93.9748 156.3591 15.49356845  4481
STARLINK-35927          
1 66624U 25271H   25348.25003472 -.00080381  00000+0 -14502-2 0  9991
2 66624  53.1601 179.9876 0000707  83.0743 165.3461 15.49346464  4486
STARLINK-35929          
1 66625U 25271J   25348.25003472 -.00078471  00000+0 -14150-2 0  9998
2 66625  53.1601 179.9788 0001152  88.0421 164.2045 15.49349128  4488
