CCSDS_OMM_VERS = 2.0
CREATION_DATE  = 
ORIGINATOR     = 

OBJECT_NAME    = STARLINK-36040
OBJECT_ID      = 2025-270AC
CENTER_NAME    = EARTH
REF_FRAME      = TEME
TIME_SYSTEM    = UTC
MEAN_ELEMENT_THEORY = SGP/SGP4

EPOCH          = 2025-12-14T06:31:04.245888
MEAN_MOTION    = 15.50595656
ECCENTRICITY   = .00017195
INCLINATION    = 42.9991
RA_OF_ASC_NODE = 183.6503
ARG_OF_PERICENTER = 267.9518
MEAN_ANOMALY   = 92.1145

EPHEMERIS_TYPE = 0
CLASSIFICATION_TYPE = U
NORAD_CAT_ID   = 66614
ELEMENT_SET_NO = 999
REV_AT_EPOCH   = 442
BSTAR          = .20383303E-2
MEAN_MOTION_DOT = .121178E-2
MEAN_MOTION_DDOT = 0

CCSDS_OMM_VERS = 2.0
CREATION_DATE  = 
ORIGINATOR     = 

OBJECT_NAME    = STARLINK-35988
OBJECT_ID      = 2025-270AD
CENTER_NAME    = EARTH
REF_FRAME      = TEME
TIME_SYSTEM    = UTC
MEAN_ELEMENT_THEORY = SGP/SGP4

EPOCH          = 2025-12-14T06:00:02.999808
MEAN_MOTION    = 15.46385081
ECCENTRICITY   = .00012744
INCLINATION    = 43.0003
RA_OF_ASC_NODE = 183.7980
ARG_OF_PERICENTER = 265.2975
MEAN_ANOMALY   = 325.3789

EPHEMERIS_TYPE = 0
CLASSIFICATION_TYPE = U
NORAD_CAT_ID   = 66615
ELEMENT_SET_NO = 999
REV_AT_EPOCH   = 448
BSTAR          = -.46573472E-1
MEAN_MOTION_DOT = -.2092274E-1
MEAN_MOTION_DDOT = 0

CCSDS_OMM_VERS = 2.0
CREATION_DATE  = 
ORIGINATOR     = 

OBJECT_NAME    = STARLINK-35391
OBJECT_ID      = 2025-270AE
CENTER_NAME    = EARTH
REF_FRAME      = TEME
TIME_SYSTEM    = UTC
MEAN_ELEMENT_THEORY = SGP/SGP4

EPOCH          = 2025-12-14T06:30:34.272864
MEAN_MOTION    = 15.50604538
ECCENTRICITY   = .00018587
INCLINATION    = 42.9987
RA_OF_ASC_NODE = 183.6472
ARG_OF_PERICENTER = 262.8877
MEAN_ANOMALY   = 97.1772

EPHEMERIS_TYPE = 0
CLASSIFICATION_TYPE = U
NORAD_CAT_ID   = 66616
ELEMENT_SET_NO = 999
REV_AT_EPOCH   = 469
BSTAR          = .16498568E-2
MEAN_MOTION_DOT = .97755E-3
MEAN_MOTION_DDOT = 0

CCSDS_OMM_VERS = 2.0
CREATION_DATE  = 
ORIGINATOR     = 

OBJECT_NAME    = STARLINK-35940
OBJECT_ID      = 2025-271A
CENTER_NAME    = EARTH
REF_FRAME      = TEME
TIME_SYSTEM    = UTC
MEAN_ELEMENT_THEORY = SGP/SGP4

EPOCH          = 2025-12-14T06:00:02.999808
MEAN_MOTION    = 15.47506506
ECCENTRICITY   = .00013049
INCLINATION    = 53.1600
RA_OF_ASC_NODE = 180.0145
ARG_OF_PERICENTER = 92.7913
MEAN_ANOMALY   = 142.7830

EPHEMERIS_TYPE = 0
CLASSIFICATION_TYPE = U
NORAD_CAT_ID   = 66617
ELEMENT_SET_NO = 999
REV_AT_EPOCH   = 448
BSTAR          = -.45673925E-1
MEAN_MOTION_DOT = -.2114669E-1
MEAN_MOTION_DDOT = 0

CCSDS_OMM_VERS = 2.0
CREATION_DATE  = 
ORIGINATOR     = 

OBJECT_NAME    = STARLINK-35970
OBJECT_ID      = 2025-271B
CENTER_NAME    = EARTH
REF_FRAME      = TEME
TIME_SYSTEM    = UTC
MEAN_ELEMENT_THEORY = SGP/SGP4

EPOCH          = 2025-12-14T06:00:02.999808
MEAN_MOTION    = 15.49409772
ECCENTRICITY   = .00007175
INCLINATION    = 53.1599
RA_OF_ASC_NODE = 179.8989
ARG_OF_PERICENTER = 69.6392
MEAN_ANOMALY   = 220.5778

EPHEMERIS_TYPE = 0
CLASSIFICATION_TYPE = U
NORAD_CAT_ID   = 66618
ELEMENT_SET_NO = 999
REV_AT_EPOCH   = 448
BSTAR          = -.32422425E-2
MEAN_MOTION_DOT = -.17736E-2
MEAN_MOTION_DDOT = 0

CCSDS_OMM_VERS = 2.0
CREATION_DATE  = 
ORIGINATOR     = 

OBJECT_NAME    = STARLINK-35951
OBJECT_ID      = 2025-271C
CENTER_NAME    = EARTH
REF_FRAME      = TEME
TIME_SYSTEM    = UTC
MEAN_ELEMENT_THEORY = SGP/SGP4

EPOCH          = 2025-12-14T06:00:02.999808
MEAN_MOTION    = 15.49394850
ECCENTRICITY   = .00004814
INCLINATION    = 53.1602
RA_OF_ASC_NODE = 179.9946
ARG_OF_PERICENTER = 116.7130
MEAN_ANOMALY   = 127.8459

EPHEMERIS_TYPE = 0
CLASSIFICATION_TYPE = U
NORAD_CAT_ID   = 66619
ELEMENT_SET_NO = 999
REV_AT_EPOCH   = 448
BSTAR          = -.2705641E-2
MEAN_MOTION_DOT = -.148542E-2
MEAN_MOTION_DDOT = 0

CCSDS_OMM_VERS = 2.0
CREATION_DATE  = 
ORIGINATOR     = 

OBJECT_NAME    = STARLINK-35936
OBJECT_ID      = 2025-271D
CENTER_NAME    = EARTH
REF_FRAME      = TEME
TIME_SYSTEM    = UTC
MEAN_ELEMENT_THEORY = SGP/SGP4

EPOCH          = 2025-12-14T06:00:02.999808
MEAN_MOTION    = 15.49350500
ECCENTRICITY   = .00008731
INCLINATION    = 53.1601
RA_OF_ASC_NODE = 180.0078
ARG_OF_PERICENTER = 62.2394
MEAN_ANOMALY   = 176.5969

EPHEMERIS_TYPE = 0
CLASSIFICATION_TYPE = U
NORAD_CAT_ID   = 66620
ELEMENT_SET_NO = 999
REV_AT_EPOCH   = 448
BSTAR          = -.16207385E-2
MEAN_MOTION_DOT = -.89689E-3
MEAN_MOTION_DDOT = 0

CCSDS_OMM_VERS = 2.0
CREATION_DATE  = 
ORIGINATOR     = 

OBJECT_NAME    = STARLINK-35847
OBJECT_ID      = 2025-271E
CENTER_NAME    = EARTH
REF_FRAME      = TEME
TIME_SYSTEM    = UTC
MEAN_ELEMENT_THEORY = SGP/SGP4

EPOCH          = 2025-12-14T06:00:02.999808
MEAN_MOTION    = 15.49400218
ECCENTRICITY   = .00007476
INCLINATION    = 53.1601
RA_OF_ASC_NODE = 179.8910
ARG_OF_PERICENTER = 67.9830
MEAN_ANOMALY   = 225.7588

EPHEMERIS_TYPE = 0
CLASSIFICATION_TYPE = U
NORAD_CAT_ID   = 66621
ELEMENT_SET_NO = 999
REV_AT_EPOCH   = 448
BSTAR          = -.27953596E-2
MEAN_MOTION_DOT = -.15339E-2
MEAN_MOTION_DDOT = 0

CCSDS_OMM_VERS = 2.0
CREATION_DATE  = 
ORIGINATOR     = 

OBJECT_NAME    = STARLINK-35950
OBJECT_ID      = 2025-271F
CENTER_NAME    = EARTH
REF_FRAME      = TEME
TIME_SYSTEM    = UTC
MEAN_ELEMENT_THEORY = SGP/SGP4

EPOCH          = 2025-12-14T06:00:02.999808
MEAN_MOTION    = 15.49352848
ECCENTRICITY   = .0000764
INCLINATION    = 53.1601
RA_OF_ASC_NODE = 179.9916
ARG_OF_PERICENTER = 85.0465
MEAN_ANOMALY   = 161.4622

EPHEMERIS_TYPE = 0
CLASSIFICATION_TYPE = U
NORAD_CAT_ID   = 66622
ELEMENT_SET_NO = 999
REV_AT_EPOCH   = 448
BSTAR          = -.17450764E-2
MEAN_MOTION_DOT = -.9646E-3
MEAN_MOTION_DDOT = 0

CCSDS_OMM_VERS = 2.0
CREATION_DATE  = 
ORIGINATOR     = 

OBJECT_NAME    = STARLINK-35920
OBJECT_ID      = 2025-271G
CENTER_NAME    = EARTH
REF_FRAME      = TEME
TIME_SYSTEM    = UTC
MEAN_ELEMENT_THEORY = SGP/SGP4

EPOCH          = 2025-12-14T06:00:02.999808
MEAN_MOTION    = 15.49356845
ECCENTRICITY   = .0001189
INCLINATION    = 53.1602
RA_OF_ASC_NODE = 179.9828
ARG_OF_PERICENTER = 93.9748
MEAN_ANOMALY   = 156.3591

EPHEMERIS_TYPE = 0
CLASSIFICATION_TYPE = U
NORAD_CAT_ID   = 66623
ELEMENT_SET_NO = 999
REV_AT_EPOCH   = 448
BSTAR          = -.12524123E-2
MEAN_MOTION_DOT = -.69602E-3
MEAN_MOTION_DDOT = 0

CCSDS_OMM_VERS = 2.0
CREATION_DATE  = 
ORIGINATOR     = 

OBJECT_NAME    = STARLINK-35927
OBJECT_ID      = 2025-271H
CENTER_NAME    = EARTH
REF_FRAME      = TEME
TIME_SYSTEM    = UTC
MEAN_ELEMENT_THEORY = SGP/SGP4

EPOCH          = 2025-12-14T06:00:02.999808
MEAN_MOTION    = 15.49346464
ECCENTRICITY   = .00007079
INCLINATION    = 53.1601
RA_OF_ASC_NODE = 179.9876
ARG_OF_PERICENTER = 83.0743
MEAN_ANOMALY   = 165.3461

EPHEMERIS_TYPE = 0
CLASSIFICATION_TYPE = U
NORAD_CAT_ID   = 66624
ELEMENT_SET_NO = 999
REV_AT_EPOCH   = 448
BSTAR          = -.14502052E-2
MEAN_MOTION_DOT = -.80381E-3
MEAN_MOTION_DDOT = 0

CCSDS_OMM_VERS = 2.0
CREATION_DATE  = 
ORIGINATOR     = 

OBJECT_NAME    = STARLINK-35929
OBJECT_ID      = 2025-271J
CENTER_NAME    = EARTH
REF_FRAME      = TEME
TIME_SYSTEM    = UTC
MEAN_ELEMENT_THEORY = SGP/SGP4

EPOCH          = 2025-12-14T06:00:02.999808
MEAN_MOTION    = 15.49349128
ECCENTRICITY   = .00011524
INCLINATION    = 53.1601
RA_OF_ASC_NODE = 179.9788
ARG_OF_PERICENTER = 88.0421
MEAN_ANOMALY   = 164.2045

EPHEMERIS_TYPE = 0
CLASSIFICATION_TYPE = U
NORAD_CAT_ID   = 66625
ELEMENT_SET_NO = 999
REV_AT_EPOCH   = 448
BSTAR          = -.14150202E-2
MEAN_MOTION_DOT = -.78471E-3
MEAN_MOTION_DDOT = 0

